     3.00           N                   E                   RINEX VERSION / TYPE
BRD_USR             ESA                 20190107 031743  UTCPGM / RUN BY / DATE
 GAL   5.1250E+01  3.1250E-02 -4.3335E-03  0.0000E+00       IONOSPHERIC CORR
GAUT  0.0000000000E+00 0.000000000E+00  86400 2035 GSTB   0 TIME SYSTEM CORR
GPGA -2.1245796233E-09 4.440892099E-15  86400 2035 GSTB   0 TIME SYSTEM CORR
                                                            END OF HEADER
E15 2019 01 07 01 40 00 9.236551704817E-04-1.023181539495E-12 0.000000000000E+00
     2.600000000000E+01-1.455312500000E+02 2.892977646988E-09-2.077039546520E+00
    -6.895512342453E-06 3.842976875603E-04 4.190951585770E-07 5.440597705841E+03
     9.240000000000E+04 3.166496753693E-08-8.664269048783E-01 4.470348358154E-08
     9.851431400346E-01 3.431250000000E+02-1.682492806602E+00-5.750596678291E-09
    -3.825159333240E-10 5.210000000000E+02 2.035000000000E+03 0.000000000000E+00
     3.120000000000E+00 4.550000000000E+02 9.313225746155E-10 9.313225746155E-10
     9.308500000000E+04 0.000000000000E+00 0.000000000000E+00 0.000000000000E+00
E18 2019 01 07 01 40 00 5.625325255096E-03-2.845013113983E-11 0.000000000000E+00
     2.600000000000E+01-9.062500000000E-01 6.100968415538E-09 3.028487292972E+00
     3.147870302200E-07 1.664357425179E-01-1.503340899944E-05 5.289376241684E+03
     9.240000000000E+04 2.611428499222E-06-1.444679474345E+00-7.096678018570E-07
     8.817504568115E-01 6.982500000000E+02 1.438384675364E+00-6.395980703983E-09
     2.857261873569E-12 5.210000000000E+02 2.035000000000E+03 0.000000000000E+00
     3.120000000000E+00 4.550000000000E+02 1.420266926289E-08 1.583248376846E-08
     9.308500000000E+04 0.000000000000E+00 0.000000000000E+00 0.000000000000E+00
E21 2019 01 07 01 40 00-5.131728248671E-04-1.875832822407E-12 0.000000000000E+00
     2.600000000000E+01 1.164375000000E+02 2.435815747217E-09-2.887945152473E+00
     5.500391125679E-06 4.874821752310E-05 1.209974288940E-05 5.440637414932E+03
     9.240000000000E+04-1.676380634308E-08-2.949326317519E+00-3.725290298462E-09
     9.899023768131E-01 9.637500000000E+01-3.305674396779E-01-5.074139929724E-09
    -1.789360248322E-10 5.210000000000E+02 2.035000000000E+03 0.000000000000E+00
     3.120000000000E+00 0.000000000000E+00-2.793967723846E-09-3.259629011154E-09
     9.308500000000E+04 0.000000000000E+00 0.000000000000E+00 0.000000000000E+00
E24 2019 01 07 01 40 00 6.299144530203E-03-1.971045548999E-11 0.000000000000E+00
     2.600000000000E+01 1.433750000000E+02 2.405457339811E-09 2.419819421935E-01
     6.565824151039E-06 4.633595235646E-04 1.211278140545E-05 5.440625709534E+03
     9.240000000000E+04 1.117587089539E-08-2.943249417261E+00-2.421438694000E-08
     9.879060202854E-01 9.590625000000E+01 4.454874858048E-01-5.053781938875E-09
    -2.075086435679E-10 5.210000000000E+02 2.035000000000E+03 0.000000000000E+00
     3.120000000000E+00 0.000000000000E+00 4.284083843231E-08 4.796311259270E-08
     9.308500000000E+04 0.000000000000E+00 0.000000000000E+00 0.000000000000E+00
E26 2019 01 07 01 40 00 5.048703809734E-03-4.330047431722E-11 0.000000000000E+00
     2.600000000000E+01-1.473750000000E+02 3.003696544589E-09 3.062732072273E+00
    -6.807968020439E-06 3.235404146835E-04 1.050531864166E-06 5.440613649368E+03
     9.240000000000E+04 6.146728992462E-08-8.574825505958E-01-4.656612873077E-08
     9.783023083437E-01 3.232812500000E+02-2.103081962125E+00-5.819170963257E-09
    -3.417999516257E-10 5.210000000000E+02 2.035000000000E+03 0.000000000000E+00
     3.120000000000E+00 0.000000000000E+00 1.164153218269E-09 1.164153218269E-09
     9.308500000000E+04 0.000000000000E+00 0.000000000000E+00 0.000000000000E+00
E31 2019 01 07 01 40 00 9.391176281497E-04-9.691802915768E-12 0.000000000000E+00
     2.600000000000E+01 1.370937500000E+02 2.407243128482E-09 3.029856081050E+00
     6.334856152534E-06 2.581612206995E-04 1.149997115135E-05 5.440631822586E+03
     9.240000000000E+04 2.980232238770E-08-2.949358456367E+00 1.862645149231E-08
     9.898778334365E-01 1.071250000000E+02-1.534516445581E+00-5.039138471773E-09
    -1.782217093638E-10 5.210000000000E+02 2.035000000000E+03 0.000000000000E+00
     3.120000000000E+00 0.000000000000E+00 0.000000000000E+00-2.328306436539E-10
     9.308500000000E+04 0.000000000000E+00 0.000000000000E+00 0.000000000000E+00
E33 2019 01 07 01 40 00 8.478729287162E-04 5.684341886081E-14 0.000000000000E+00
     2.600000000000E+01-1.524375000000E+02 2.894049120191E-09 1.673681048288E+00
    -7.150694727898E-06 3.567014355212E-04 9.704381227493E-07 5.440599901199E+03
     9.240000000000E+04-3.911554813385E-08-8.664521431410E-01-3.539025783539E-08
     9.851809725591E-01 3.268437500000E+02-1.505854163133E+00-5.729881529708E-09
    -4.057311860468E-10 5.210000000000E+02 2.035000000000E+03 0.000000000000E+00
     3.120000000000E+00 4.550000000000E+02-8.149072527885E-09-9.080395102501E-09
     9.308500000000E+04 0.000000000000E+00 0.000000000000E+00 0.000000000000E+00
E36 2019 01 07 01 40 00 7.626436999999E-04-4.504840944719E-12 0.000000000000E+00
     2.600000000000E+01-1.606562500000E+02 2.999053494045E-09-5.612177530178E-01
    -7.361173629761E-06 3.261087695137E-04 6.239861249924E-07 5.440599111557E+03
     9.240000000000E+04 1.490116119385E-08-8.664258486515E-01 3.352761268616E-08
     9.851887757641E-01 3.381875000000E+02-1.625419042919E+00-5.835600219030E-09
    -3.918020344131E-10 5.210000000000E+02 2.035000000000E+03 0.000000000000E+00
     3.120000000000E+00 4.550000000000E+02 1.164153218269E-09 1.396983861923E-09
     9.308500000000E+04 0.000000000000E+00 0.000000000000E+00 0.000000000000E+00
E02 2019 01 07 01 40 00 4.227447789162E-05 1.492139745096E-12 0.000000000000E+00
     2.600000000000E+01 1.335625000000E+02 2.483674883600E-09-6.051495281869E-01
     6.187707185745E-06 2.659229794517E-04 1.294352114201E-05 5.440624536514E+03
     9.240000000000E+04 1.862645149231E-09-2.946751337393E+00 1.285225152969E-07
     9.903469444511E-01 7.603125000000E+01-2.751616161915E-01-5.150571684842E-09
    -2.732256666600E-10 2.580000000000E+02 2.035000000000E+03 0.000000000000E+00
     3.120000000000E+00 0.000000000000E+00-5.820766091347E-09 0.000000000000E+00
     9.310000000000E+04 0.000000000000E+00 0.000000000000E+00 0.000000000000E+00
E03 2019 01 07 01 40 00-1.193363568746E-04-4.263256414561E-12 0.000000000000E+00
     2.600000000000E+01 2.684375000000E+01 3.482287908412E-09 5.771809132161E-01
     1.315027475357E-06 2.713481662795E-04 6.217509508133E-06 5.440608583450E+03
     9.240000000000E+04-1.117587089539E-08 1.244058146872E+00-2.235174179077E-08
     9.522302467034E-01 2.030625000000E+02 6.329425988398E-01-5.595590221650E-09
     5.750239520557E-10 2.580000000000E+02 2.035000000000E+03 0.000000000000E+00
     3.120000000000E+00 0.000000000000E+00-1.862645149231E-09 0.000000000000E+00
     9.310000000000E+04 0.000000000000E+00 0.000000000000E+00 0.000000000000E+00
E07 2019 01 07 01 40 00-1.078447094187E-04-7.105427357601E-12 0.000000000000E+00
     2.600000000000E+01 3.631250000000E+01 3.490502536298E-09-4.119273419244E-01
     1.803040504456E-06 1.417284365743E-04 6.075948476791E-06 5.440610908508E+03
     9.240000000000E+04-3.725290298462E-09 1.244058587211E+00-4.842877388000E-08
     9.522733486587E-01 2.047500000000E+02 5.163180644341E-02-5.652378301387E-09
     6.096682522727E-10 2.580000000000E+02 2.035000000000E+03 0.000000000000E+00
     3.120000000000E+00 0.000000000000E+00 4.656612873077E-10 0.000000000000E+00
     9.310000000000E+04 0.000000000000E+00 0.000000000000E+00 0.000000000000E+00
E08 2019 01 07 01 40 00 6.428420543671E-03-7.489120434911E-12 0.000000000000E+00
     2.600000000000E+01 2.737500000000E+01 3.340139130202E-09-5.967986885466E-02
     1.341104507446E-06 2.239906461909E-04 6.496906280518E-06 5.440607744217E+03
     9.240000000000E+04 2.048909664154E-08 1.235421270175E+00 1.303851604462E-08
     9.582171818890E-01 1.998125000000E+02 4.860248038782E-01-5.525587305748E-09
     6.103825677411E-10 2.580000000000E+02 2.035000000000E+03 0.000000000000E+00
     3.120000000000E+00 0.000000000000E+00-8.381903171539E-09 0.000000000000E+00
     9.310000000000E+04 0.000000000000E+00 0.000000000000E+00 0.000000000000E+00
E09 2019 01 07 01 40 00 6.565815303475E-03-1.134026206273E-11 0.000000000000E+00
     2.600000000000E+01 3.509375000000E+01 3.461929917563E-09 2.659775310363E+00
     1.700595021248E-06 2.464900026098E-04 6.100162863731E-06 5.440605655670E+03
     9.240000000000E+04 2.421438694000E-08 1.235419483952E+00 4.284083843231E-08
     9.582467386858E-01 2.080312500000E+02 1.215065524356E-01-5.639877780690E-09
     5.850243686132E-10 2.580000000000E+02 2.035000000000E+03 0.000000000000E+00
     3.120000000000E+00 0.000000000000E+00-3.259629011154E-09 0.000000000000E+00
     9.310000000000E+04 0.000000000000E+00 0.000000000000E+00 0.000000000000E+00
E11 2019 01 07 01 40 00 5.719196808059E-03 9.379164112033E-13 0.000000000000E+00
     2.600000000000E+01-1.657500000000E+02 2.946908464852E-09-1.043227960049E+00
    -7.634982466698E-06 2.453392371535E-04 1.421198248863E-06 5.440606241226E+03
     9.240000000000E+04-2.980232238770E-08-8.611175523854E-01 5.215406417847E-08
     9.819440556485E-01 3.210312500000E+02-3.633228805992E-01-5.804527496155E-09
    -3.828730910582E-10 2.580000000000E+02 2.035000000000E+03 0.000000000000E+00
     3.120000000000E+00 0.000000000000E+00-1.816079020500E-08 0.000000000000E+00
     9.310000000000E+04 0.000000000000E+00 0.000000000000E+00 0.000000000000E+00
